IRIDIUM 119             
1 42959U 17061E   24192.44137498  .00000396  00000+0  13430-3 0  9993
2 42959  86.3986 320.5945 0002279 101.4629 258.6822 14.34220618353513
IRIDIUM 107             
1 42960U 17061F   24192.59993924  .00000122  00000+0  36452-4 0  9992
2 42960  86.3987 320.5451 0002411  96.9798 263.1672 14.34217428353543
IRIDIUM 132             
1 42961U 17061G   24192.39697630  .00000211  00000+0  68398-4 0  9999
2 42961  86.3983 320.6139 0002602  96.9369 263.2123 14.34218239353510
IRIDIUM 136             
1 42962U 17061H   24192.63799355  .00000375  00000+0  12687-3 0  9994
2 42962  86.3987 320.5166 0002102 101.8080 258.3352 14.34219126353565
IRIDIUM 139             
1 42963U 17061J   24192.43502372  .00000395  00000+0  13413-3 0  9994
2 42963  86.3976 320.6503 0002579  96.2477 263.9013 14.34217513353547
IRIDIUM 135             
1 43070U 17083A   24192.46624084  .00000333  00000+0  11195-3 0  9993
2 43070  86.3954 257.3369 0002211  85.7789 274.3659 14.34220358342856
IRIDIUM 138             
1 43071U 17083B   24192.42184152  .00000312  00000+0  10423-3 0  9997
2 43071  86.3943 257.0696 0002262 103.2528 256.8920 14.34217932342836
